[{"Id":1,"Name":"Baylor Scott \u0026 White Heart and Vascular Hospital","Address":"621 North Hall Street","City":"Dallas","State":"TX","Zip":75226,"Phone":"(214) 820-0600","Website":"http://www.baylorhearthospital.com/handler.cfm?event=practice,main","AggMedicalStaffRating":5,"AggClericalStaffRating":5,"AggFacilityRating":5,"AggOverallRating":5,"Reviews":[]},{"Id":2,"Name":"Baylor Scott \u0026 White Medical Center Uptown","Address":"2727 East Lemmon Ave.","City":"Dallas","State":"TX","Zip":75204,"Phone":"(214) 443-3000","Website":"http://www.bmcuptown.com/","AggMedicalStaffRating":1,"AggClericalStaffRating":1,"AggFacilityRating":1,"AggOverallRating":1,"Reviews":[]},{"Id":3,"Name":"Baylor University Medical Center","Address":"3500 Gaston Street","City":"Dallas","State":"TX","Zip":75246,"Phone":"(214) 820-0111","Website":"http://www.bswhealth.com/locations/dallas/Pages/default.aspx","AggMedicalStaffRating":1,"AggClericalStaffRating":1,"AggFacilityRating":1,"AggOverallRating":1,"Reviews":[]},{"Id":4,"Name":"City Hospital at White Rock","Address":"9440 Poppy Drive","City":"Dallas","State":"TX","Zip":75218,"Phone":"(214) 324-6100","Website":"http://cityhospital.co/","AggMedicalStaffRating":1,"AggClericalStaffRating":1,"AggFacilityRating":1,"AggOverallRating":1,"Reviews":[]},{"Id":5,"Name":"Dallas Medical Center","Address":"7 Medical Parkway","City":"Dallas","State":"TX","Zip":75234,"Phone":"(972) 888-7000","Website":"http://www.dallasmedcenter.com/","AggMedicalStaffRating":1,"AggClericalStaffRating":1,"AggFacilityRating":1,"AggOverallRating":1,"Reviews":[]},{"Id":6,"Name":"Dallas VA Medical Center","Address":"4500 South Lancaster Road","City":"Dallas","State":"TX","Zip":75216,"Phone":"(214) 742-8387","Website":"http://www.northtexas.va.gov/","AggMedicalStaffRating":1,"AggClericalStaffRating":1,"AggFacilityRating":1,"AggOverallRating":1,"Reviews":[]},{"Id":7,"Name":"Medical City Dallas","Address":"7777 Forest Lane","City":"Dallas","State":"TX","Zip":75230,"Phone":"(972) 566-700","Website":"http://medicalcityhospital.com/","AggMedicalStaffRating":1,"AggClericalStaffRating":1,"AggFacilityRating":1,"AggOverallRating":1,"Reviews":[]},{"Id":8,"Name":"Methodist Charlton Medical Center","Address":"3500 West Wheatland Road","City":"Dallas","State":"TX","Zip":75237,"Phone":"(214) 947-7777","Website":"http://www.methodisthealthsystem.org/methodist-charlton-medical-center/","AggMedicalStaffRating":1,"AggClericalStaffRating":1,"AggFacilityRating":1,"AggOverallRating":1,"Reviews":[]},{"Id":9,"Name":"Methodist Dallas Medical Center","Address":"1441 North Beckley Avenue","City":"Dallas","State":"TX","Zip":75203,"Phone":"(214) 947-8181","Website":"http://www.methodisthealthsystem.org/methodist-dallas-medical-center/?L=true","AggMedicalStaffRating":1,"AggClericalStaffRating":1,"AggFacilityRating":1,"AggOverallRating":1,"Reviews":[]},{"Id":10,"Name":"North Central Surgical Center","Address":"9301 North Central Expressway Suite 100","City":"Dallas","State":"TX","Zip":75231,"Phone":"(214) 265-2810","Website":"http://www.northcentralsurgical.com/","AggMedicalStaffRating":1,"AggClericalStaffRating":1,"AggFacilityRating":1,"AggOverallRating":1,"Reviews":[]},{"Id":11,"Name":"Parkland Hospital","Address":"5200 Harry Hines Boulevard","City":"Dallas","State":"TX","Zip":75235,"Phone":"(214) 590-8000","Website":"http://www.parklandhospital.com/","AggMedicalStaffRating":1,"AggClericalStaffRating":1,"AggFacilityRating":1,"AggOverallRating":1,"Reviews":[]},{"Id":12,"Name":"Texas Health Dallas","Address":"8200 Walnut Hill Lane","City":"Dallas","State":"TX","Zip":75231,"Phone":"(214) 345-6789","Website":"http://www.texashealth.org/dallas/","AggMedicalStaffRating":1,"AggClericalStaffRating":1,"AggFacilityRating":1,"AggOverallRating":1,"Reviews":[]},{"Id":13,"Name":"Texas Institute for Surgery","Address":"7115 Greenville Avenue","City":"Dallas","State":"TX","Zip":75231,"Phone":"(214) 647-5300","Website":"http://www.texasinstituteforsurgery.com/","AggMedicalStaffRating":1,"AggClericalStaffRating":1,"AggFacilityRating":1,"AggOverallRating":1,"Reviews":[]},{"Id":14,"Name":"William P. Clements Jr. University Hospital","Address":"6201 Harry Hines Boulevard","City":"Dallas","State":"TX","Zip":75390,"Phone":"(214) 633-5555","Website":"http://utswmed.org/locations/clements/william-p-clements-jr-university-hospital/","AggMedicalStaffRating":1,"AggClericalStaffRating":1,"AggFacilityRating":1,"AggOverallRating":1,"Reviews":[]},{"Id":15,"Name":"Zale Lipshy Pavilion-William P. Clements Jr. University Hospital","Address":"5151 Harry Hines Boulevard","City":"Dallas","State":"TX","Zip":75390,"Phone":"(214) 645-5555","Website":"http://utswmed.org/locations/zale-lipshy-pavilion/zale-lipshy-pavilion/","AggMedicalStaffRating":1,"AggClericalStaffRating":1,"AggFacilityRating":1,"AggOverallRating":1,"Reviews":[]},{"Id":16,"Name":"Baylor Scott \u0026 White Orthopedic and Spine Hospital Arlington","Address":"707 Highlander Boulevard","City":"Arlington","State":"TX","Zip":76015,"Phone":"(855) 416-7846","Website":"http://baylorarlington.com/","AggMedicalStaffRating":1,"AggClericalStaffRating":1,"AggFacilityRating":1,"AggOverallRating":1,"Reviews":[]},{"Id":17,"Name":"Medical City Arlington","Address":"3301 Matlock Rd.","City":"Arlington","State":"TX","Zip":76015,"Phone":"(817) 465-3241","Website":"http://medicalcityarlington.com/","AggMedicalStaffRating":1,"AggClericalStaffRating":1,"AggFacilityRating":1,"AggOverallRating":1,"Reviews":[]},{"Id":18,"Name":"Texas Health Arlington Medical Hospital","Address":"800 West Randol Mill Road","City":"Arlington","State":"TX","Zip":76012,"Phone":"(817) 960-6100","Website":"http://www.texashealth.org/arlington/","AggMedicalStaffRating":1,"AggClericalStaffRating":1,"AggFacilityRating":1,"AggOverallRating":1,"Reviews":[]},{"Id":19,"Name":"Texas Health Heart \u0026 Vascular Hospital Arlington","Address":"811 Wright Street","City":"Arlington","State":"TX","Zip":76012,"Phone":"(817) 960-3500","Website":"http://www.texashealthheartandvascular.org/","AggMedicalStaffRating":1,"AggClericalStaffRating":1,"AggFacilityRating":1,"AggOverallRating":1,"Reviews":[]},{"Id":20,"Name":"USMD Hospital at Arlington","Address":"801 West Interstate 20\tArlington","City":"Arlington","State":"TX","Zip":76017,"Phone":"(817) 472-3400","Website":"http://www.usmdarlington.com/","AggMedicalStaffRating":1,"AggClericalStaffRating":1,"AggFacilityRating":1,"AggOverallRating":1,"Reviews":[]},{"Id":21,"Name":"Baylor Scott \u0026 White All Saints Medical Center","Address":"1400 Eighth Avenue","City":"Fort Worth","State":"TX","Zip":76104,"Phone":"(817) 926-2544","Website":"http://www.bswhealth.com/locations/fort-worth/Pages/default.aspx","AggMedicalStaffRating":1,"AggClericalStaffRating":1,"AggFacilityRating":1,"AggOverallRating":1,"Reviews":[]},{"Id":22,"Name":"Baylor Scott \u0026 White Surgical Hospital Fort Worth","Address":"1800 Park Place Avenue","City":"Fort Worth","State":"TX","Zip":76110,"Phone":"(682) 703-5600","Website":"http://www.bshfw.com/","AggMedicalStaffRating":1,"AggClericalStaffRating":1,"AggFacilityRating":1,"AggOverallRating":1,"Reviews":[]},{"Id":23,"Name":"John Peter Smith Hospital","Address":"1500 South Main Street","City":"Fort Worth","State":"TX","Zip":76104,"Phone":"(817) 921-3431","Website":"http://www.jpshealthnet.org/","AggMedicalStaffRating":1,"AggClericalStaffRating":1,"AggFacilityRating":1,"AggOverallRating":1,"Reviews":[]},{"Id":24,"Name":"Medical City Alliance","Address":"3101 North Tarrant Pkwy","City":"Fort Worth","State":"TX","Zip":76177,"Phone":"(817) 639-1000","Website":"http://medicalcityalliance.com/","AggMedicalStaffRating":1,"AggClericalStaffRating":1,"AggFacilityRating":1,"AggOverallRating":1,"Reviews":[]},{"Id":25,"Name":"Medical City Fort Worth","Address":"900 Eighth Avenue","City":"Fort Worth","State":"TX","Zip":76104,"Phone":"(817) 877-5292","Website":"http://medicalcityfortworth.com/","AggMedicalStaffRating":1,"AggClericalStaffRating":1,"AggFacilityRating":1,"AggOverallRating":1,"Reviews":[]},{"Id":26,"Name":"Texas Health Alliance","Address":"10864 Texas Health Trail","City":"Fort Worth","State":"TX","Zip":76244,"Phone":"(682) 212-2000","Website":"http://www.texashealth.org/alliance/","AggMedicalStaffRating":1,"AggClericalStaffRating":1,"AggFacilityRating":1,"AggOverallRating":1,"Reviews":[]},{"Id":27,"Name":"Texas Health Fort Worth","Address":"1301 Pennsylvania Avenue","City":"Fort Worth","State":"TX","Zip":76104,"Phone":"(817) 250-2000","Website":"http://www.texashealth.org/fortworth/","AggMedicalStaffRating":1,"AggClericalStaffRating":1,"AggFacilityRating":1,"AggOverallRating":1,"Reviews":[]},{"Id":28,"Name":"Texas Health Southwest","Address":"6100 Harris Parkway","City":"Fort Worth","State":"TX","Zip":76132,"Phone":"(817) 433-5000","Website":"http://www.texashealth.org/southwestfw/","AggMedicalStaffRating":1,"AggClericalStaffRating":1,"AggFacilityRating":1,"AggOverallRating":1,"Reviews":[]},{"Id":29,"Name":"USMD Hospital at Fort Worth","Address":"5900 Altamesa Boulevard","City":"Fort Worth","State":"TX","Zip":76132,"Phone":"(817) 433-9100","Website":"http://www.usmdfortworth.com/","AggMedicalStaffRating":1,"AggClericalStaffRating":1,"AggFacilityRating":1,"AggOverallRating":1,"Reviews":[]},{"Id":30,"Name":"Wise Health Surgical Hospital at Parkway","Address":"3200 North Tarrant Parkway","City":"Fort Worth","State":"TX","Zip":76177,"Phone":"(817) 502-7300","Website":"http://www.wisehealthsurgicalhospital.com/parkway/","AggMedicalStaffRating":1,"AggClericalStaffRating":1,"AggFacilityRating":1,"AggOverallRating":1,"Reviews":[]}]